[
    {
        "Altitude(m)": 622205.872609919,
        "Argument of Periapsis(deg)": 0.0,
        "Eccentricity": 0.0,
        "Inclination(deg)": 60.0,
        "Latitude(deg)": -52.162449544036164,
        "Longitude(deg)": -2.299455719504118,
        "Mean Anomaly(deg)": -114.5455,
        "RAAN(deg)": 229.99999999999997,
        "Satellite Name": "Test1 1027",
        "Satellite Number": 1027,
        "Semi-Major Axis(m)": 6980739.136638005,
        "Time(s)": 0
    },
    {
        "Altitude(m)": 622344.7785584904,
        "Argument of Periapsis(deg)": 0.00010418945913296404,
        "Eccentricity": 0.0,
        "Inclination(deg)": 60.0,
        "Latitude(deg)": -52.52002754217474,
        "Longitude(deg)": -1.5182411721752715,
        "Mean Anomaly(deg)": -113.92539385453817,
        "RAAN(deg)": 229.99957995086024,
        "Satellite Name": "Test1 1027",
        "Satellite Number": 1027,
        "Semi-Major Axis(m)": 6980739.136638005,
        "Time(s)": 10
    }
]